0 CBERS 1 DEB
1 34204U 99057RF  13281.14775481  .00007364  00000-0  18726-2 0  4479
2 34204 098.2150 248.3362 0017351 346.7236 013.4002 14.50879524284421
0 CBERS 1 DEB
1 34204U 99057RF  13282.73390736  .00007792  00000-0  19823-2 0  4486
2 34204 098.2264 249.9018 0008233 341.3882 018.8448 14.50909724284653
0 CBERS 1 DEB
1 34204U 99057RF  13283.14765545  .00007452  00000-0  18932-2 0  4490
2 34204 098.2127 250.2880 0018417 342.5920 017.3499 14.50911766284710
0 CBERS 1 DEB
1 34204U 99057RF  13286.73365294  .00009117  00000-0  23131-2 0  4515
2 34204 098.2289 253.8217 0007253 339.1114 021.3526 14.50993439285236
0 CBERS 1 DEB
1 34204U 99057RF  13287.14733289  .00007938  00000-0  20154-2 0  4526
2 34204 098.2229 254.2141 0010435 338.0672 021.8495 14.50985130285299
0 CBERS 1 DEB
1 34204U 99057RF  13290.66405841  .00012717  00000-0  32100-2 0  4533
2 34204 098.2279 257.6642 0005259 309.5286 050.5931 14.51105718285818
0 CBERS 1 DEB
1 34204U 99057RF  13290.73316913  .00011225  00000-0  28387-2 0  4537
2 34204 098.2330 257.7327 0005002 310.5942 050.3388 14.51099513285813
0 CBERS 1 DEB
1 34204U 99057RF  13293.15840516  .00013601  00000-0  34309-2 0  4549
2 34204 098.2291 260.1087 0005267 301.8296 121.3543 14.51165701286162
